[{"OBJECT_NAME":"OBJECT A","OBJECT_ID":"2025-013A","EPOCH":"2026-03-09T23:29:31.895232","MEAN_MOTION":15.29260221,"ECCENTRICITY":0.0010321,"INCLINATION":97.6364,"RA_OF_ASC_NODE":244.5149,"ARG_OF_PERICENTER":282.3775,"MEAN_ANOMALY":77.6309,"EPHEMERIS_TYPE":0,"CLASSIFICATION_TYPE":"U","NORAD_CAT_ID":62729,"ELEMENT_SET_NO":999,"REV_AT_EPOCH":6276,"BSTAR":0.0013206527,"MEAN_MOTION_DOT":0.00037616,"MEAN_MOTION_DDOT":0},{"OBJECT_NAME":"STARLINK-35151","OBJECT_ID":"2025-210C","EPOCH":"2026-03-09T22:04:50.863296","MEAN_MOTION":15.30217862,"ECCENTRICITY":9.524e-5,"INCLINATION":53.1605,"RA_OF_ASC_NODE":306.1991,"ARG_OF_PERICENTER":100.3948,"MEAN_ANOMALY":259.7161,"EPHEMERIS_TYPE":0,"CLASSIFICATION_TYPE":"U","NORAD_CAT_ID":65624,"ELEMENT_SET_NO":999,"REV_AT_EPOCH":2768,"BSTAR":0.0011529032,"MEAN_MOTION_DOT":0.00033961,"MEAN_MOTION_DDOT":0}]
